[{"OBJECT_NAME":"SEEDS II (CO-66)","OBJECT_ID":"2008-021J","EPOCH":"2026-03-09T22:06:22.421376","MEAN_MOTION":15.29097236,"ECCENTRICITY":0.00014475,"INCLINATION":97.7519,"RA_OF_ASC_NODE":62.3611,"ARG_OF_PERICENTER":359.2618,"MEAN_ANOMALY":0.8619,"EPHEMERIS_TYPE":0,"CLASSIFICATION_TYPE":"U","NORAD_CAT_ID":32791,"ELEMENT_SET_NO":999,"REV_AT_EPOCH":97210,"BSTAR":0.00084213052,"MEAN_MOTION_DOT":0.00023758,"MEAN_MOTION_DDOT":0},{"OBJECT_NAME":"STARLINK-32359","OBJECT_ID":"2024-209U","EPOCH":"2026-03-09T11:30:05.179104","MEAN_MOTION":15.3019085,"ECCENTRICITY":0.00011793,"INCLINATION":53.1574,"RA_OF_ASC_NODE":143.4521,"ARG_OF_PERICENTER":110.0444,"MEAN_ANOMALY":250.0684,"EPHEMERIS_TYPE":0,"CLASSIFICATION_TYPE":"U","NORAD_CAT_ID":61957,"ELEMENT_SET_NO":999,"REV_AT_EPOCH":7488,"BSTAR":0.00048615343,"MEAN_MOTION_DOT":0.00014063,"MEAN_MOTION_DDOT":0}]
